ONEWEB-0545             
1 54647U 22166F   24341.83766921  .00000004  00000+0 -22850-4 0  9994
2 54647  87.9292 355.0322 0002266  85.1276 275.0117 13.21825988 97871
ONEWEB-0580             
1 54648U 22166G   24341.81085435  .00000006  00000+0 -17147-4 0  9992
2 54648  87.9297 355.0193 0002255  92.5297 267.6095 13.21827073 97910
ONEWEB-0582             
1 54649U 22166H   24341.77773301 -.00000018  00000+0 -74791-4 0  9996
2 54649  87.9295 355.0579 0002473  93.4246 266.7171 13.21828269 97882
ONEWEB-0583             
1 54650U 22166J   24341.78876247  .00000014  00000+0  19023-5 0  9994
2 54650  87.9292 355.0528 0001899  87.8322 272.3029 13.21827179 97893
ONEWEB-0584             
1 54651U 22166K   24341.80927894 -.00000045  00000+0 -13976-3 0  9998
2 54651  87.9298 355.0235 0002286  95.8029 264.3366 13.21824817 97889
ONEWEB-0585             
1 54652U 22166L   24341.45602551  .00000127  00000+0  27677-3 0  9992
2 54652  87.9287 355.1012 0001765  93.0610 267.0726 13.21826231 97847
ONEWEB-0586             
1 54653U 22166M   24341.84713013 -.00001920  00000+0 -46799-2 0  9991
2 54653  87.9296 355.0321 0002191  88.1106 272.0279 13.21836579 97899
ONEWEB-0587             
1 54654U 22166N   24341.78087751 -.00000999  00000+0 -24502-2 0  9991
2 54654  87.9293 354.9983 0001616  90.4891 269.6428 13.21832706 98041
